{"type": "FeatureCollection", "features": [{"type": "Feature", "geometry": {"type": "Point", "coordinates": [-0.0988079, 51.5153718]}, "properties": {"osm_id": 104319, "category": "crossing", "button_operated": "yes", "crossing": "traffic_signals", "highway": "crossing", "tactile_paving": "yes", "traffic_signals:sound": "no", "traffic_signals:vibration": "yes"}}, {"type": "Feature", "geometry": {"type": "Point", "coordinates": [-0.0986446, 51.5155547]}, "properties": {"osm_id": 20965800, "category": "crossing", "button_operated": "yes", "crossing": "traffic_signals", "crossing_ref": "pelican", "highway": "crossing", "tactile_paving": "yes", "traffic_signals:sound": "no"}}, {"type": "Feature", "geometry": {"type": "Point", "coordinates": [-0.0952538, 51.5205134]}, "properties": {"osm_id": 25471289, "category": "crossing", "crossing:markings": "no", "crossing:signals": "no", "highway": "crossing", "tactile_paving": "no"}}, {"type": "Feature", "geometry": {"type": "Point", "coordinates": [-0.0970153, 51.5187526]}, "properties": {"osm_id": 25497968, "category": "crossing", "crossing": "uncontrolled", "crossing:markings": "zebra", "crossing:signals": "no", "crossing_ref": "zebra", "highway": "crossing", "tactile_paving": "yes"}}, {"type": "Feature", "geometry": {"type": "Point", "coordinates": [-0.0971271, 51.5187451]}, "properties": {"osm_id": 25632678, "category": "crossing", "crossing": "uncontrolled", "crossing:markings": "zebra", "crossing_ref": "zebra", "highway": "crossing", "tactile_paving": "yes"}}, {"type": "Feature", "geometry": {"type": "Point", "coordinates": [-0.0909785, 51.5157749]}, "properties": {"osm_id": 250549835, "category": "crossing", "crossing": "unmarked", "highway": "crossing", "tactile_paving": "yes"}}, {"type": "Feature", "geometry": {"type": "Point", "coordinates": [-0.0939375, 51.5174512]}, "properties": {"osm_id": 256766532, "category": "crossing", "crossing": "traffic_signals", "crossing:markings": "dots", "crossing:signals": "yes", "crossing_ref": "pelican", "highway": "crossing"}}, {"type": "Feature", "geometry": {"type": "Point", "coordinates": [-0.0939383, 51.5175366]}, "properties": {"osm_id": 256766533, "category": "crossing", "crossing": "traffic_signals", "crossing:markings": "dots", "crossing:signals": "yes", "crossing_ref": "pelican", "highway": "crossing"}}, {"type": "Feature", "geometry": {"type": "Point", "coordinates": [-0.0923809, 51.5209038]}, "properties": {"osm_id": 291951643, "category": "crossing", "crossing": "uncontrolled", "crossing:island": "no", "crossing:markings": "zebra", "crossing_ref": "zebra", "highway": "crossing", "kerb": "lowered", "tactile_paving": "yes"}}, {"type": "Feature", "geometry": {"type": "Point", "coordinates": [-0.0962991, 51.5174562]}, "properties": {"osm_id": 372050299, "category": "crossing", "crossing": "uncontrolled", "crossing:markings": "zebra", "crossing:signals": "no", "crossing_ref": "zebra", "highway": "crossing", "tactile_paving": "yes"}}, {"type": "Feature", "geometry": {"type": "Point", "coordinates": [-0.0974153, 51.5151785]}, "properties": {"osm_id": 373364228, "category": "crossing", "crossing": "traffic_signals", "crossing:island": "no", "crossing_ref": "pelican", "highway": "crossing", "tactile_paving": "yes"}}, {"type": "Feature", "geometry": {"type": "Point", "coordinates": [-0.0984732, 51.5152356]}, "properties": {"osm_id": 441966148, "category": "tactile_paving", "bench": "yes", "bin": "no", "bus": "yes", "check_date:shelter": "2026-01-08", "highway": "bus_stop", "lit": "yes", "local_ref": "SQ", "name": "St Paul's Station", "naptan:AtcoCode": "490000225T", "naptan:Bearing": "W", "naptan:CommonName": "St Paul's", "naptan:Indicator": "Stop SQ", "naptan:Street": "NEWGATE STREET", "public_transport": "platform", "ref": "58894", "shelter": "yes", "tactile_paving": "no"}}, {"type": "Feature", "geometry": {"type": "Point", "coordinates": [-0.0999169, 51.5157403]}, "properties": {"osm_id": 469761239, "category": "tactile_paving", "bench": "yes", "bin": "no", "bus": "yes", "check_date:bench": "2024-02-22", "covered": "no", "highway": "bus_stop", "lit": "no", "local_ref": "ST", "name": "King Edward Street", "naptan:AtcoCode": "490000225S", "naptan:Bearing": "E", "naptan:CommonName": "St Paul's", "naptan:Indicator": "Stop ST", "naptan:Street": "NEWGATE STREET", "public_transport": "platform", "ref": "50503", "shelter": "yes", "tactile_paving": "no"}}, {"type": "Feature", "geometry": {"type": "Point", "coordinates": [-0.0978521, 51.5150449]}, "properties": {"osm_id": 469761241, "category": "tactile_paving", "bench": "no", "bin": "no", "bus": "yes", "highway": "bus_stop", "kerb": "raised", "kerb:approach_aid": "no", "lit": "no", "local_ref": "SP", "name": "St Paul's Station", "naptan:AtcoCode": "490000225U", "naptan:Bearing": "W", "naptan:CommonName": "St Paul's", "naptan:Indicator": "Stop SP", "naptan:Street": "NEWGATE STREET", "passenger_information_display": "no", "public_transport": "platform", "ref": "76584", "shelter": "yes", "tactile_paving": "no"}}, {"type": "Feature", "geometry": {"type": "Point", "coordinates": [-0.0970327, 51.515543]}, "properties": {"osm_id": 469761242, "category": "tactile_paving", "bench": "no", "bin": "no", "bus": "yes", "departures_board": "yes", "highway": "bus_stop", "lit": "no", "local_ref": "SW", "name": "St Paul's Station", "naptan:AtcoCode": "490000225W", "naptan:Bearing": "S", "naptan:CommonName": "St Paul's", "naptan:Indicator": "SW", "naptan:Street": "ST MARTIN'S LE GRAND", "public_transport": "platform", "ref": "52729", "shelter": "no", "tactile_paving": "no"}}, {"type": "Feature", "geometry": {"type": "Point", "coordinates": [-0.0941673, 51.5207704]}, "properties": {"osm_id": 469764402, "category": "tactile_paving", "bench": "no", "bin": "no", "bus": "yes", "highway": "bus_stop", "layer": "-1", "lit": "yes", "local_ref": "BN", "name": "Beech Street", "naptan:AtcoCode": "490003818E", "naptan:Bearing": "E", "naptan:CommonName": "Beech Street", "naptan:Indicator": "Stop BN", "naptan:Street": "BEECH STREET", "naptan:verified": "yes", "note": "Doesn't have a separate bus shelter, but the whole road is sheltered by the Barbican complex above", "public_transport": "platform", "ref": "47223", "shelter": "yes", "tactile_paving": "no", "wheelchair": "yes"}}, {"type": "Feature", "geometry": {"type": "Point", "coordinates": [-0.0986455, 51.5165565]}, "properties": {"osm_id": 469773003, "category": "tactile_paving", "bench": "no", "bin": "no", "bus": "yes", "highway": "bus_stop", "lit": "yes", "name": "King Edward Street / St Paul's Station", "naptan:AtcoCode": "490008743V", "naptan:Bearing": "N", "naptan:CommonName": "King Edward Street", "naptan:Street": "KING EDWARD STREET", "public_transport": "platform", "shelter": "no", "tactile_paving": "no"}}, {"type": "Feature", "geometry": {"type": "Point", "coordinates": [-0.0951951, 51.5175768]}, "properties": {"osm_id": 469776893, "category": "tactile_paving", "bench": "no", "bus": "yes", "highway": "bus_stop", "local_ref": "BE", "name": "London Wall", "naptan:AtcoCode": "490010130E", "naptan:Bearing": "E", "naptan:CommonName": "London Wall / Museum Of London", "naptan:Indicator": "Stop BE", "naptan:Street": "LONDON WALL", "public_transport": "platform", "ref": "73989", "shelter": "no", "tactile_paving": "no"}}, {"type": "Feature", "geometry": {"type": "Point", "coordinates": [-0.0951159, 51.5174023]}, "properties": {"osm_id": 469776898, "category": "tactile_paving", "bench": "no", "bin": "no", "bus": "yes", "highway": "bus_stop", "lit": "no", "local_ref": "BH", "name": "London Wall", "naptan:AtcoCode": "490010130W", "naptan:Bearing": "W", "naptan:CommonName": "London Wall / Museum Of London", "naptan:Indicator": "Stop BH", "naptan:Street": "LONDON WALL", "public_transport": "platform", "ref": "72430", "shelter": "no", "tactile_paving": "no"}}, {"type": "Feature", "geometry": {"type": "Point", "coordinates": [-0.0953913, 51.5174009]}, "properties": {"osm_id": 1150003247, "category": "crossing", "crossing": "unmarked", "crossing:markings": "no", "highway": "crossing"}}, {"type": "Feature", "geometry": {"type": "Point", "coordinates": [-0.0935799, 51.5176868]}, "properties": {"osm_id": 1150003532, "category": "crossing", "crossing": "traffic_signals", "crossing:island": "yes", "crossing:markings": "zebra", "crossing:signals": "yes", "crossing_ref": "pelican", "highway": "crossing"}}, {"type": "Feature", "geometry": {"type": "Point", "coordinates": [-0.0971956, 51.5151255]}, "properties": {"osm_id": 1215563895, "category": "crossing", "button_operated": "yes", "crossing": "traffic_signals", "crossing:island": "no", "crossing_ref": "pelican", "highway": "crossing", "traffic_signals:vibration": "yes"}}, {"type": "Feature", "geometry": {"type": "Point", "coordinates": [-0.0962547, 51.5175802]}, "properties": {"osm_id": 1326821569, "category": "crossing", "crossing": "uncontrolled", "crossing:markings": "zebra", "crossing:signals": "no", "crossing_ref": "zebra", "highway": "crossing"}}, {"type": "Feature", "geometry": {"type": "Point", "coordinates": [-0.0997727, 51.51952]}, "properties": {"osm_id": 1363483801, "category": "crossing", "crossing": "uncontrolled", "crossing:island": "no", "crossing:markings": "zebra", "crossing:signals": "no", "crossing_ref": "zebra", "highway": "crossing", "tactile_paving": "yes", "traffic_calming": "table"}}, {"type": "Feature", "geometry": {"type": "Point", "coordinates": [-0.0969968, 51.5160844]}, "properties": {"osm_id": 1366095187, "category": "crossing", "crossing": "traffic_signals", "crossing:island": "no", "crossing_ref": "pelican", "highway": "crossing", "tactile_paving": "yes"}}, {"type": "Feature", "geometry": {"type": "Point", "coordinates": [-0.0968503, 51.5170118]}, "properties": {"osm_id": 1366095189, "category": "crossing", "button_operated": "yes", "crossing": "traffic_signals", "crossing:island": "no", "crossing:markings": "dots", "crossing:signals": "yes", "crossing_ref": "pelican", "highway": "crossing", "tactile_paving": "yes"}}, {"type": "Feature", "geometry": {"type": "Point", "coordinates": [-0.0994452, 51.5194635]}, "properties": {"osm_id": 1601832328, "category": "crossing", "crossing": "uncontrolled", "crossing:island": "no", "crossing:markings": "zebra", "crossing:signals": "no", "crossing_ref": "zebra", "highway": "crossing", "source": "Bing;photographic_survey"}}, {"type": "Feature", "geometry": {"type": "Point", "coordinates": [-0.0919733, 51.5150805]}, "properties": {"osm_id": 1684511955, "category": "crossing", "button_operated": "yes", "crossing": "traffic_signals", "crossing:island": "no", "crossing:markings": "dots", "crossing:signals": "yes", "crossing_ref": "pelican", "highway": "crossing", "tactile_paving": "no", "traffic_signals:countdown": "yes"}}, {"type": "Feature", "geometry": {"type": "Point", "coordinates": [-0.091734, 51.5209385]}, "properties": {"osm_id": 1723340818, "category": "tactile_paving", "bench": "no", "bin": "no", "bus": "yes", "highway": "bus_stop", "lit": "yes", "local_ref": "BM", "name": "Silk Street", "naptan:AtcoCode": "490003824W", "naptan:Bearing": "W", "naptan:verified": "no", "public_transport": "platform", "ref": "56084", "shelter": "no", "source": "photograph", "tactile_paving": "no", "wheelchair": "yes"}}, {"type": "Feature", "geometry": {"type": "Point", "coordinates": [-0.097206, 51.5201713]}, "properties": {"osm_id": 1723388979, "category": "crossing", "button_operated": "yes", "crossing": "traffic_signals", "crossing:island": "no", "crossing:markings": "dots", "crossing:signals": "yes", "crossing_ref": "pelican", "highway": "crossing", "tactile_paving": "yes", "traffic_signals:sound": "no", "traffic_signals:vibration": "yes"}}, {"type": "Feature", "geometry": {"type": "Point", "coordinates": [-0.0972025, 51.5159859]}, "properties": {"osm_id": 1813618228, "category": "crossing", "crossing": "unmarked", "highway": "crossing"}}, {"type": "Feature", "geometry": {"type": "Point", "coordinates": [-0.0984554, 51.5160681]}, "properties": {"osm_id": 1813618231, "category": "crossing", "crossing": "unmarked", "crossing:island": "no", "highway": "crossing"}}, {"type": "Feature", "geometry": {"type": "Point", "coordinates": [-0.0903085, 51.5192488]}, "properties": {"osm_id": 2036125649, "category": "crossing", "crossing": "uncontrolled", "crossing:island": "no", "highway": "crossing", "kerb": "lowered", "source": "survey", "tactile_paving": "yes"}}, {"type": "Feature", "geometry": {"type": "Point", "coordinates": [-0.0973735, 51.5198872]}, "properties": {"osm_id": 2135411294, "category": "crossing", "button_operated": "yes", "crossing": "traffic_signals", "crossing:island": "no", "crossing:markings": "dots", "crossing:signals": "yes", "crossing_ref": "pelican", "highway": "crossing", "source": "Bing;photograph", "tactile_paving": "yes", "traffic_signals:vibration": "yes"}}, {"type": "Feature", "geometry": {"type": "Point", "coordinates": [-0.0972645, 51.5198966]}, "properties": {"osm_id": 2135411296, "category": "crossing", "button_operated": "yes", "check_date:crossing": "2022-02-20", "crossing": "traffic_signals", "crossing:island": "no", "crossing:markings": "dots", "crossing:signals": "yes", "crossing_ref": "pelican", "highway": "crossing", "source": "Bing;photograph", "tactile_paving": "yes", "traffic_signals:vibration": "yes"}}, {"type": "Feature", "geometry": {"type": "Point", "coordinates": [-0.0975053, 51.5200166]}, "properties": {"osm_id": 2135411297, "category": "crossing", "button_operated": "yes", "crossing": "traffic_signals", "crossing:island": "yes", "crossing:markings": "dots", "crossing:signals": "yes", "crossing_ref": "pelican", "highway": "crossing", "source": "Bing;photograph", "tactile_paving": "yes", "traffic_signals:sound": "no", "traffic_signals:vibration": "yes"}}, {"type": "Feature", "geometry": {"type": "Point", "coordinates": [-0.0987692, 51.5205038]}, "properties": {"osm_id": 2135411308, "category": "crossing", "crossing": "uncontrolled", "crossing:island": "no", "crossing:markings": "zebra", "crossing:signals": "no", "crossing_ref": "zebra", "highway": "crossing", "kerb": "flush", "note": "The Bing imagery (as at Mar 2018) is out-of-date, the zebra crossing has moved slightly to the west, and the pavement has been widened next to it", "source": "photograph", "tactile_paving": "yes", "traffic_calming": "table"}}, {"type": "Feature", "geometry": {"type": "Point", "coordinates": [-0.0971841, 51.5201044]}, "properties": {"osm_id": 2331184930, "category": "crossing", "button_operated": "yes", "crossing": "traffic_signals", "crossing:island": "no", "crossing:markings": "dots", "crossing:signals": "yes", "crossing_ref": "pelican", "highway": "crossing", "tactile_paving": "yes", "traffic_signals:sound": "no", "traffic_signals:vibration": "yes"}}, {"type": "Feature", "geometry": {"type": "Point", "coordinates": [-0.0974578, 51.5202449]}, "properties": {"osm_id": 2331184932, "category": "crossing", "button_operated": "yes", "crossing": "traffic_signals", "crossing:island": "no", "crossing:markings": "dots", "crossing:signals": "yes", "crossing_ref": "pelican", "highway": "crossing", "tactile_paving": "yes", "traffic_signals:sound": "no", "traffic_signals:vibration": "yes"}}, {"type": "Feature", "geometry": {"type": "Point", "coordinates": [-0.0973369, 51.5202536]}, "properties": {"osm_id": 2331184935, "category": "crossing", "button_operated": "yes", "crossing": "traffic_signals", "crossing:island": "no", "crossing:markings": "dots", "crossing:signals": "yes", "crossing_ref": "pelican", "highway": "crossing", "tactile_paving": "yes", "traffic_signals:sound": "yes", "traffic_signals:vibration": "yes"}}, {"type": "Feature", "geometry": {"type": "Point", "coordinates": [-0.0987097, 51.5155575]}, "properties": {"osm_id": 2398924877, "category": "tactile_paving", "barrier": "kerb", "kerb": "lowered", "tactile_paving": "yes"}}, {"type": "Feature", "geometry": {"type": "Point", "coordinates": [-0.0987605, 51.5155956]}, "properties": {"osm_id": 2398924886, "category": "tactile_paving", "barrier": "kerb", "kerb": "flush", "tactile_paving": "yes"}}, {"type": "Feature", "geometry": {"type": "Point", "coordinates": [-0.098765, 51.5156243]}, "properties": {"osm_id": 2398924896, "category": "crossing", "button_operated": "yes", "crossing": "traffic_signals", "crossing_ref": "pelican", "highway": "crossing", "tactile_paving": "yes", "traffic_signals:sound": "no", "traffic_signals:vibration": "no"}}, {"type": "Feature", "geometry": {"type": "Point", "coordinates": [-0.0944588, 51.5219471]}, "properties": {"osm_id": 2415274415, "category": "crossing", "crossing": "uncontrolled", "crossing:island": "yes", "crossing:markings": "zebra;dots", "highway": "crossing", "tactile_paving": "yes"}}, {"type": "Feature", "geometry": {"type": "Point", "coordinates": [-0.0930666, 51.5169394]}, "properties": {"osm_id": 2987752073, "category": "crossing", "crossing": "unmarked", "crossing:continuous": "no", "crossing:island": "no", "crossing:markings": "no", "highway": "crossing", "tactile_paving": "no"}}, {"type": "Feature", "geometry": {"type": "Point", "coordinates": [-0.0974039, 51.5150084]}, "properties": {"osm_id": 3229824332, "category": "tactile_paving", "barrier": "kerb", "kerb": "flush", "tactile_paving": "yes"}}, {"type": "Feature", "geometry": {"type": "Point", "coordinates": [-0.0972457, 51.5151283]}, "properties": {"osm_id": 3229824339, "category": "tactile_paving", "barrier": "kerb", "kerb": "flush", "tactile_paving": "no"}}, {"type": "Feature", "geometry": {"type": "Point", "coordinates": [-0.0973853, 51.5151562]}, "properties": {"osm_id": 3229824347, "category": "tactile_paving", "barrier": "kerb", "kerb": "flush", "tactile_paving": "yes"}}, {"type": "Feature", "geometry": {"type": "Point", "coordinates": [-0.0906958, 51.5174386]}, "properties": {"osm_id": 3739049346, "category": "crossing", "highway": "crossing"}}, {"type": "Feature", "geometry": {"type": "Point", "coordinates": [-0.0985772, 51.5161562]}, "properties": {"osm_id": 4076095262, "category": "crossing", "crossing": "traffic_signals", "crossing:island": "no", "crossing_ref": "pelican", "highway": "crossing", "tactile_paving": "yes"}}, {"type": "Feature", "geometry": {"type": "Point", "coordinates": [-0.0985295, 51.5161537]}, "properties": {"osm_id": 4076095263, "category": "tactile_paving", "barrier": "kerb", "kerb": "lowered", "tactile_paving": "yes"}}, {"type": "Feature", "geometry": {"type": "Point", "coordinates": [-0.0900013, 51.5198245]}, "properties": {"osm_id": 4571194090, "category": "crossing", "crossing": "unmarked", "crossing:island": "no", "crossing:markings": "no", "highway": "crossing", "tactile_paving": "no"}}, {"type": "Feature", "geometry": {"type": "Point", "coordinates": [-0.0975744, 51.5204571]}, "properties": {"osm_id": 4703542478, "category": "tactile_paving", "bench": "yes", "bin": "yes", "bus": "yes", "highway": "bus_stop", "lit": "yes", "local_ref": "BA", "name": "Barbican Station", "naptan:AtcoCode": "490000014A", "naptan:Bearing": "N", "naptan:CommonName": "Barbican", "naptan:Indicator": "Stop BA", "naptan:Street": "ALDERSGATE STREET", "naptan:verified": "no", "public_transport": "platform", "ref": "57079", "shelter": "yes", "tactile_paving": "no", "wheelchair": "yes"}}, {"type": "Feature", "geometry": {"type": "Point", "coordinates": [-0.0975129, 51.5202407]}, "properties": {"osm_id": 4703542480, "category": "tactile_paving", "barrier": "kerb", "kerb": "flush", "tactile_paving": "yes"}}, {"type": "Feature", "geometry": {"type": "Point", "coordinates": [-0.0972146, 51.5199011]}, "properties": {"osm_id": 4703542485, "category": "tactile_paving", "barrier": "kerb", "kerb": "lowered", "tactile_paving": "yes"}}, {"type": "Feature", "geometry": {"type": "Point", "coordinates": [-0.0975022, 51.5199353]}, "properties": {"osm_id": 4703542487, "category": "tactile_paving", "barrier": "kerb", "kerb": "flush", "tactile_paving": "yes"}}, {"type": "Feature", "geometry": {"type": "Point", "coordinates": [-0.0971723, 51.5200743]}, "properties": {"osm_id": 4703559689, "category": "tactile_paving", "barrier": "kerb", "kerb": "flush", "tactile_paving": "yes"}}, {"type": "Feature", "geometry": {"type": "Point", "coordinates": [-0.0912501, 51.5197871]}, "properties": {"osm_id": 4823246341, "category": "crossing", "crossing": "uncontrolled", "crossing:island": "no", "crossing_ref": "zebra", "highway": "crossing", "kerb": "flush", "tactile_paving": "yes"}}, {"type": "Feature", "geometry": {"type": "Point", "coordinates": [-0.0925315, 51.517006]}, "properties": {"osm_id": 5040168491, "category": "crossing", "crossing": "unmarked", "crossing:continuous": "no", "crossing:island": "no", "crossing:markings": "no", "highway": "crossing", "tactile_paving": "no"}}, {"type": "Feature", "geometry": {"type": "Point", "coordinates": [-0.0911099, 51.5150369]}, "properties": {"osm_id": 5042032165, "category": "tactile_paving", "barrier": "kerb", "kerb": "lowered", "tactile_paving": "no"}}, {"type": "Feature", "geometry": {"type": "Point", "coordinates": [-0.0937811, 51.5173088]}, "properties": {"osm_id": 5067002867, "category": "crossing", "button_operated": "yes", "crossing": "traffic_signals", "crossing:island": "no", "crossing_ref": "pelican", "highway": "crossing", "tactile_paving": "yes"}}, {"type": "Feature", "geometry": {"type": "Point", "coordinates": [-0.0929228, 51.5171012]}, "properties": {"osm_id": 5269670540, "category": "crossing", "crossing": "unmarked", "crossing:continuous": "no", "crossing:island": "no", "crossing:markings": "no", "highway": "crossing", "tactile_paving": "no"}}, {"type": "Feature", "geometry": {"type": "Point", "coordinates": [-0.0985966, 51.5168876]}, "properties": {"osm_id": 5353604061, "category": "crossing", "button_operated": "yes", "crossing": "traffic_signals", "crossing:markings": "dots", "crossing:signals": "yes", "crossing_ref": "pelican", "highway": "crossing", "kerb": "lowered", "tactile_paving": "yes", "traffic_signals:vibration": "yes"}}, {"type": "Feature", "geometry": {"type": "Point", "coordinates": [-0.091763, 51.5182416]}, "properties": {"osm_id": 5609643675, "category": "crossing", "highway": "crossing"}}, {"type": "Feature", "geometry": {"type": "Point", "coordinates": [-0.0994196, 51.5203287]}, "properties": {"osm_id": 6696695781, "category": "crossing", "crossing": "unmarked", "crossing:island": "no", "crossing:markings": "no", "highway": "crossing", "tactile_paving": "yes", "traffic_calming": "table"}}, {"type": "Feature", "geometry": {"type": "Point", "coordinates": [-0.0926094, 51.5209803]}, "properties": {"osm_id": 6855696502, "category": "crossing", "crossing": "uncontrolled", "crossing:island": "no", "crossing:markings": "zebra", "crossing:signals": "no", "crossing_ref": "zebra", "highway": "crossing", "proposed:traffic_calming": "table", "tactile_paving": "yes"}}, {"type": "Feature", "geometry": {"type": "Point", "coordinates": [-0.095341, 51.515993]}, "properties": {"osm_id": 6871422362, "category": "crossing", "crossing": "unmarked", "crossing:markings": "no", "highway": "crossing"}}, {"type": "Feature", "geometry": {"type": "Point", "coordinates": [-0.0933553, 51.5174585]}, "properties": {"osm_id": 6978555518, "category": "crossing", "crossing": "traffic_signals", "crossing:markings": "dots", "crossing:signals": "yes", "crossing_ref": "pelican", "highway": "crossing"}}, {"type": "Feature", "geometry": {"type": "Point", "coordinates": [-0.0933581, 51.517538]}, "properties": {"osm_id": 6978555522, "category": "crossing", "crossing": "traffic_signals", "crossing:markings": "dots", "crossing:signals": "yes", "crossing_ref": "pelican", "highway": "crossing"}}, {"type": "Feature", "geometry": {"type": "Point", "coordinates": [-0.0934998, 51.5176692]}, "properties": {"osm_id": 6978563378, "category": "crossing", "crossing": "traffic_signals", "crossing:markings": "zebra", "crossing:signals": "yes", "crossing_ref": "pelican", "highway": "crossing"}}, {"type": "Feature", "geometry": {"type": "Point", "coordinates": [-0.0952617, 51.5205679]}, "properties": {"osm_id": 7447587254, "category": "crossing", "crossing": "unmarked", "crossing:markings": "no", "highway": "crossing", "tactile_paving": "yes", "traffic_calming": "table"}}, {"type": "Feature", "geometry": {"type": "Point", "coordinates": [-0.0923742, 51.5210963]}, "properties": {"osm_id": 7447716111, "category": "crossing", "crossing": "unmarked", "crossing:island": "no", "crossing:markings": "no", "highway": "crossing", "kerb": "flush", "tactile_paving": "yes", "traffic_calming": "table"}}, {"type": "Feature", "geometry": {"type": "Point", "coordinates": [-0.0905786, 51.5207771]}, "properties": {"osm_id": 7447716112, "category": "crossing", "crossing": "unmarked", "crossing:island": "no", "crossing:markings": "no", "highway": "crossing", "kerb": "flush", "tactile_paving": "yes", "traffic_calming": "table"}}, {"type": "Feature", "geometry": {"type": "Point", "coordinates": [-0.0962964, 51.5174206]}, "properties": {"osm_id": 7553479212, "category": "tactile_paving", "barrier": "kerb", "kerb": "lowered", "tactile_paving": "yes"}}, {"type": "Feature", "geometry": {"type": "Point", "coordinates": [-0.0987721, 51.5156616]}, "properties": {"osm_id": 7946378606, "category": "tactile_paving", "barrier": "kerb", "kerb": "lowered", "tactile_paving": "yes"}}, {"type": "Feature", "geometry": {"type": "Point", "coordinates": [-0.0987919, 51.5153959]}, "properties": {"osm_id": 7946378610, "category": "tactile_paving", "barrier": "kerb", "kerb": "lowered", "tactile_paving": "yes"}}, {"type": "Feature", "geometry": {"type": "Point", "coordinates": [-0.0996427, 51.5202265]}, "properties": {"osm_id": 8784000965, "category": "crossing", "crossing": "unmarked", "crossing:markings": "no", "highway": "crossing"}}, {"type": "Feature", "geometry": {"type": "Point", "coordinates": [-0.097446, 51.5152008]}, "properties": {"osm_id": 8868824869, "category": "tactile_paving", "barrier": "kerb", "kerb": "flush", "tactile_paving": "yes"}}, {"type": "Feature", "geometry": {"type": "Point", "coordinates": [-0.0970113, 51.5167118]}, "properties": {"osm_id": 8868824889, "category": "tactile_paving", "barrier": "kerb", "kerb": "flush", "tactile_paving": "no"}}, {"type": "Feature", "geometry": {"type": "Point", "coordinates": [-0.0969331, 51.5170953]}, "properties": {"osm_id": 8868824899, "category": "crossing", "crossing": "unmarked", "crossing:continuous": "no", "crossing:island": "no", "crossing:markings": "no", "highway": "crossing", "tactile_paving": "no"}}, {"type": "Feature", "geometry": {"type": "Point", "coordinates": [-0.0970057, 51.5167287]}, "properties": {"osm_id": 8868824901, "category": "crossing", "crossing": "unmarked", "crossing:continuous": "no", "crossing:island": "no", "crossing:markings": "no", "highway": "crossing", "tactile_paving": "no"}}, {"type": "Feature", "geometry": {"type": "Point", "coordinates": [-0.0969986, 51.5167476]}, "properties": {"osm_id": 8868824902, "category": "tactile_paving", "barrier": "kerb", "kerb": "flush", "tactile_paving": "no"}}, {"type": "Feature", "geometry": {"type": "Point", "coordinates": [-0.0969358, 51.5170776]}, "properties": {"osm_id": 8868824909, "category": "tactile_paving", "barrier": "kerb", "kerb": "lowered", "tactile_paving": "no"}}, {"type": "Feature", "geometry": {"type": "Point", "coordinates": [-0.0969314, 51.5171168]}, "properties": {"osm_id": 8868824910, "category": "tactile_paving", "barrier": "kerb", "kerb": "lowered", "tactile_paving": "no"}}, {"type": "Feature", "geometry": {"type": "Point", "coordinates": [-0.0968033, 51.5170096]}, "properties": {"osm_id": 8868824912, "category": "tactile_paving", "tactile_paving": "yes"}}, {"type": "Feature", "geometry": {"type": "Point", "coordinates": [-0.0921058, 51.5151372]}, "properties": {"osm_id": 8869464357, "category": "crossing", "crossing": "unmarked", "highway": "crossing"}}, {"type": "Feature", "geometry": {"type": "Point", "coordinates": [-0.0910048, 51.5157754]}, "properties": {"osm_id": 8869464365, "category": "kerb", "barrier": "kerb", "kerb": "lowered"}}, {"type": "Feature", "geometry": {"type": "Point", "coordinates": [-0.0909391, 51.5157739]}, "properties": {"osm_id": 8869464366, "category": "tactile_paving", "barrier": "kerb", "kerb": "lowered", "tactile_paving": "yes"}}, {"type": "Feature", "geometry": {"type": "Point", "coordinates": [-0.0910168, 51.5157758]}, "properties": {"osm_id": 8869464367, "category": "tactile_paving", "tactile_paving": "yes"}}, {"type": "Feature", "geometry": {"type": "Point", "coordinates": [-0.0900376, 51.5153989]}, "properties": {"osm_id": 9030155751, "category": "crossing", "crossing": "unmarked", "crossing:island": "no", "crossing:markings": "no", "highway": "crossing", "tactile_paving": "yes", "traffic_calming": "table"}}, {"type": "Feature", "geometry": {"type": "Point", "coordinates": [-0.0984922, 51.5169839]}, "properties": {"osm_id": 9693963706, "category": "crossing", "crossing": "unmarked", "crossing:markings": "no", "highway": "crossing", "kerb": "flush", "tactile_paving": "yes"}}, {"type": "Feature", "geometry": {"type": "Point", "coordinates": [-0.0970591, 51.5160893]}, "properties": {"osm_id": 9804653404, "category": "kerb", "barrier": "kerb", "kerb": "lowered"}}, {"type": "Feature", "geometry": {"type": "Point", "coordinates": [-0.0969027, 51.5170147]}, "properties": {"osm_id": 9804700894, "category": "tactile_paving", "barrier": "kerb", "kerb": "flush", "tactile_paving": "yes"}}, {"type": "Feature", "geometry": {"type": "Point", "coordinates": [-0.0974064, 51.5202487]}, "properties": {"osm_id": 9804783192, "category": "tactile_paving", "barrier": "kerb", "kerb": "flush", "tactile_paving": "yes"}}, {"type": "Feature", "geometry": {"type": "Point", "coordinates": [-0.0973867, 51.5202501]}, "properties": {"osm_id": 9804783193, "category": "tactile_paving", "barrier": "kerb", "kerb": "flush", "tactile_paving": "yes"}}, {"type": "Feature", "geometry": {"type": "Point", "coordinates": [-0.0971987, 51.5201489]}, "properties": {"osm_id": 9804783195, "category": "tactile_paving", "barrier": "kerb", "kerb": "flush", "tactile_paving": "yes"}}, {"type": "Feature", "geometry": {"type": "Point", "coordinates": [-0.097193, 51.5201283]}, "properties": {"osm_id": 9804783196, "category": "tactile_paving", "barrier": "kerb", "kerb": "flush", "tactile_paving": "yes"}}, {"type": "Feature", "geometry": {"type": "Point", "coordinates": [-0.0944509, 51.5156197]}, "properties": {"osm_id": 9856119634, "category": "crossing", "crossing:island": "no", "crossing:markings": "no", "crossing:signals": "no", "highway": "crossing", "surface": "paving_stones", "tactile_paving": "yes", "traffic_calming": "table"}}, {"type": "Feature", "geometry": {"type": "Point", "coordinates": [-0.0945705, 51.5157863]}, "properties": {"osm_id": 9856119640, "category": "crossing", "crossing": "unmarked", "crossing:continuous": "no", "crossing:island": "no", "crossing:markings": "no", "highway": "crossing", "kerb": "flush", "surface": "paving_stones", "traffic_calming": "table"}}, {"type": "Feature", "geometry": {"type": "Point", "coordinates": [-0.0971497, 51.515123]}, "properties": {"osm_id": 10263444813, "category": "tactile_paving", "barrier": "kerb", "kerb": "flush", "tactile_paving": "no"}}, {"type": "Feature", "geometry": {"type": "Point", "coordinates": [-0.0960122, 51.5161324]}, "properties": {"osm_id": 10971309790, "category": "crossing", "crossing": "unmarked", "crossing:markings": "no", "highway": "crossing"}}, {"type": "Feature", "geometry": {"type": "Point", "coordinates": [-0.094899, 51.5175915]}, "properties": {"osm_id": 10972189970, "category": "crossing", "crossing": "unmarked", "crossing:markings": "no", "highway": "crossing"}}, {"type": "Feature", "geometry": {"type": "Point", "coordinates": [-0.0926872, 51.5203346]}, "properties": {"osm_id": 11073620924, "category": "crossing", "highway": "crossing"}}, {"type": "Feature", "geometry": {"type": "Point", "coordinates": [-0.096233, 51.5155208]}, "properties": {"osm_id": 11074295210, "category": "crossing", "crossing": "unmarked", "highway": "crossing"}}, {"type": "Feature", "geometry": {"type": "Point", "coordinates": [-0.0960429, 51.516009]}, "properties": {"osm_id": 11074295215, "category": "crossing", "crossing": "unmarked", "crossing:markings": "no", "highway": "crossing"}}, {"type": "Feature", "geometry": {"type": "Point", "coordinates": [-0.095456, 51.5150948]}, "properties": {"osm_id": 11074295229, "category": "crossing", "highway": "crossing"}}, {"type": "Feature", "geometry": {"type": "Point", "coordinates": [-0.0933945, 51.5153674]}, "properties": {"osm_id": 11079475758, "category": "crossing", "crossing": "unmarked", "crossing:continuous": "no", "crossing:island": "no", "crossing:markings": "no", "highway": "crossing", "tactile_paving": "yes"}}, {"type": "Feature", "geometry": {"type": "Point", "coordinates": [-0.0933313, 51.5153448]}, "properties": {"osm_id": 11079475759, "category": "tactile_paving", "barrier": "kerb", "kerb": "flush", "tactile_paving": "yes"}}, {"type": "Feature", "geometry": {"type": "Point", "coordinates": [-0.093431, 51.5153804]}, "properties": {"osm_id": 11079475760, "category": "tactile_paving", "barrier": "kerb", "kerb": "flush", "tactile_paving": "yes"}}, {"type": "Feature", "geometry": {"type": "Point", "coordinates": [-0.0955138, 51.5158948]}, "properties": {"osm_id": 11079664648, "category": "crossing", "highway": "crossing"}}, {"type": "Feature", "geometry": {"type": "Point", "coordinates": [-0.0943955, 51.5156088]}, "properties": {"osm_id": 11079664655, "category": "tactile_paving", "barrier": "kerb", "kerb": "flush", "tactile_paving": "yes"}}, {"type": "Feature", "geometry": {"type": "Point", "coordinates": [-0.0944995, 51.5156293]}, "properties": {"osm_id": 11079664656, "category": "tactile_paving", "barrier": "kerb", "kerb": "flush", "tactile_paving": "yes"}}, {"type": "Feature", "geometry": {"type": "Point", "coordinates": [-0.0922196, 51.5151568]}, "properties": {"osm_id": 11081568975, "category": "kerb", "barrier": "kerb", "kerb": "lowered"}}, {"type": "Feature", "geometry": {"type": "Point", "coordinates": [-0.0931114, 51.5153903]}, "properties": {"osm_id": 11081568981, "category": "crossing", "crossing": "unmarked", "crossing:markings": "no", "highway": "crossing"}}, {"type": "Feature", "geometry": {"type": "Point", "coordinates": [-0.091083, 51.5150334]}, "properties": {"osm_id": 11081568982, "category": "crossing", "crossing": "unmarked", "crossing:continuous": "no", "crossing:island": "no", "crossing:markings": "no", "highway": "crossing", "tactile_paving": "no"}}, {"type": "Feature", "geometry": {"type": "Point", "coordinates": [-0.0920504, 51.5151307]}, "properties": {"osm_id": 11081568988, "category": "kerb", "barrier": "kerb", "kerb": "lowered"}}, {"type": "Feature", "geometry": {"type": "Point", "coordinates": [-0.0900897, 51.5154923]}, "properties": {"osm_id": 11081568991, "category": "crossing", "highway": "crossing"}}, {"type": "Feature", "geometry": {"type": "Point", "coordinates": [-0.0985666, 51.5155513]}, "properties": {"osm_id": 11081890208, "category": "tactile_paving", "barrier": "kerb", "kerb": "lowered", "tactile_paving": "yes"}}, {"type": "Feature", "geometry": {"type": "Point", "coordinates": [-0.0988219, 51.5153508]}, "properties": {"osm_id": 11081890209, "category": "tactile_paving", "barrier": "kerb", "kerb": "lowered", "tactile_paving": "yes"}}, {"type": "Feature", "geometry": {"type": "Point", "coordinates": [-0.0922863, 51.5151055]}, "properties": {"osm_id": 11208397659, "category": "crossing", "button_operated": "yes", "crossing": "traffic_signals", "crossing:island": "no", "crossing:markings": "dots", "crossing:signals": "yes", "crossing_ref": "pelican", "highway": "crossing", "tactile_paving": "yes", "traffic_signals:countdown": "yes"}}, {"type": "Feature", "geometry": {"type": "Point", "coordinates": [-0.0923543, 51.5174707]}, "properties": {"osm_id": 11439621784, "category": "crossing", "crossing": "unmarked", "crossing:island": "no", "crossing:markings": "no", "highway": "crossing", "tactile_paving": "yes"}}, {"type": "Feature", "geometry": {"type": "Point", "coordinates": [-0.092355, 51.5175534]}, "properties": {"osm_id": 11439621786, "category": "crossing", "crossing": "unmarked", "crossing:island": "no", "crossing:markings": "no", "highway": "crossing", "tactile_paving": "yes"}}, {"type": "Feature", "geometry": {"type": "Point", "coordinates": [-0.0972163, 51.520206]}, "properties": {"osm_id": 11548453898, "category": "tactile_paving", "barrier": "kerb", "kerb": "flush", "tactile_paving": "yes"}}, {"type": "Feature", "geometry": {"type": "Point", "coordinates": [-0.0972855, 51.5202585]}, "properties": {"osm_id": 11548453899, "category": "tactile_paving", "barrier": "kerb", "kerb": "flush", "tactile_paving": "yes"}}, {"type": "Feature", "geometry": {"type": "Point", "coordinates": [-0.0902229, 51.5193905]}, "properties": {"osm_id": 11787391313, "category": "crossing", "crossing": "uncontrolled", "crossing:island": "no", "crossing:markings": "zebra", "highway": "crossing"}}, {"type": "Feature", "geometry": {"type": "Point", "coordinates": [-0.0926269, 51.5210167]}, "properties": {"osm_id": 12203059702, "category": "tactile_paving", "ramp:wheelchair": "yes", "tactile_paving": "yes"}}, {"type": "Feature", "geometry": {"type": "Point", "coordinates": [-0.0925909, 51.520943]}, "properties": {"osm_id": 12203059703, "category": "tactile_paving", "ramp:wheelchair": "yes", "tactile_paving": "yes"}}, {"type": "Feature", "geometry": {"type": "Point", "coordinates": [-0.0929257, 51.5171763]}, "properties": {"osm_id": 12404896945, "category": "crossing", "crossing": "unmarked", "crossing:continuous": "no", "crossing:island": "no", "crossing:markings": "no", "highway": "crossing", "tactile_paving": "no"}}, {"type": "Feature", "geometry": {"type": "Point", "coordinates": [-0.092512, 51.5170387]}, "properties": {"osm_id": 12404896955, "category": "tactile_paving", "tactile_paving": "no"}}, {"type": "Feature", "geometry": {"type": "Point", "coordinates": [-0.092892, 51.5171519]}, "properties": {"osm_id": 12404896958, "category": "tactile_paving", "tactile_paving": "no"}}, {"type": "Feature", "geometry": {"type": "Point", "coordinates": [-0.0925506, 51.5169754]}, "properties": {"osm_id": 12404896974, "category": "tactile_paving", "tactile_paving": "no"}}, {"type": "Feature", "geometry": {"type": "Point", "coordinates": [-0.0930463, 51.5169348]}, "properties": {"osm_id": 12404942301, "category": "tactile_paving", "tactile_paving": "no"}}, {"type": "Feature", "geometry": {"type": "Point", "coordinates": [-0.09296, 51.5170376]}, "properties": {"osm_id": 12404942305, "category": "tactile_paving", "tactile_paving": "no"}}, {"type": "Feature", "geometry": {"type": "Point", "coordinates": [-0.0930863, 51.516944]}, "properties": {"osm_id": 12404942316, "category": "tactile_paving", "tactile_paving": "no"}}, {"type": "Feature", "geometry": {"type": "Point", "coordinates": [-0.0929744, 51.5171814]}, "properties": {"osm_id": 12404942331, "category": "tactile_paving", "tactile_paving": "no"}}, {"type": "Feature", "geometry": {"type": "Point", "coordinates": [-0.0928934, 51.5171725]}, "properties": {"osm_id": 12404942334, "category": "tactile_paving", "tactile_paving": "no"}}, {"type": "Feature", "geometry": {"type": "Point", "coordinates": [-0.0901356, 51.5176484]}, "properties": {"osm_id": 12699214101, "category": "crossing", "crossing": "unmarked", "crossing:island": "no", "crossing:markings": "no", "highway": "crossing", "traffic_calming": "table"}}, {"type": "Feature", "geometry": {"type": "Point", "coordinates": [-0.0992194, 51.5196178]}, "properties": {"osm_id": 12797602714, "category": "crossing", "crossing": "unmarked", "crossing:markings": "no", "highway": "crossing", "tactile_paving": "yes"}}, {"type": "Feature", "geometry": {"type": "Point", "coordinates": [-0.0925489, 51.5214201]}, "properties": {"osm_id": 12797672074, "category": "crossing", "highway": "crossing"}}, {"type": "Feature", "geometry": {"type": "Point", "coordinates": [-0.0988014, 51.5197468]}, "properties": {"osm_id": 12797672084, "category": "crossing", "highway": "crossing"}}, {"type": "Feature", "geometry": {"type": "Point", "coordinates": [-0.0990054, 51.5196807]}, "properties": {"osm_id": 12797672089, "category": "crossing", "highway": "crossing"}}, {"type": "Feature", "geometry": {"type": "Point", "coordinates": [-0.0954471, 51.5217731]}, "properties": {"osm_id": 12980137913, "category": "crossing", "crossing": "unmarked", "crossing:markings": "no", "highway": "crossing"}}, {"type": "Feature", "geometry": {"type": "Point", "coordinates": [-0.0900267, 51.5154224]}, "properties": {"osm_id": 13021245637, "category": "kerb", "barrier": "kerb", "kerb": "lowered"}}, {"type": "Feature", "geometry": {"type": "Point", "coordinates": [-0.0910365, 51.5150287]}, "properties": {"osm_id": 13021245639, "category": "tactile_paving", "barrier": "kerb", "kerb": "lowered", "tactile_paving": "no"}}, {"type": "Feature", "geometry": {"type": "Point", "coordinates": [-0.0933877, 51.5180648]}, "properties": {"osm_id": 13022476989, "category": "crossing", "crossing": "unmarked", "crossing:continuous": "no", "crossing:island": "no", "crossing:markings": "no", "highway": "crossing", "kerb": "lowered", "tactile_paving": "no"}}, {"type": "Feature", "geometry": {"type": "Point", "coordinates": [-0.0959729, 51.5161205]}, "properties": {"osm_id": 13022543551, "category": "kerb", "barrier": "kerb", "kerb": "lowered"}}, {"type": "Feature", "geometry": {"type": "Point", "coordinates": [-0.0931239, 51.515323]}, "properties": {"osm_id": 13022543554, "category": "crossing", "crossing": "unmarked", "crossing:continuous": "no", "crossing:island": "yes", "crossing:markings": "no", "highway": "crossing"}}, {"type": "Feature", "geometry": {"type": "Point", "coordinates": [-0.0922711, 51.5151345]}, "properties": {"osm_id": 13022543567, "category": "tactile_paving", "barrier": "kerb", "kerb": "flush", "tactile_paving": "yes"}}, {"type": "Feature", "geometry": {"type": "Point", "coordinates": [-0.0923015, 51.5150765]}, "properties": {"osm_id": 13022543568, "category": "tactile_paving", "barrier": "kerb", "kerb": "flush", "tactile_paving": "yes"}}, {"type": "Feature", "geometry": {"type": "Point", "coordinates": [-0.091965, 51.5151099]}, "properties": {"osm_id": 13022543571, "category": "tactile_paving", "barrier": "kerb", "kerb": "flush", "tactile_paving": "no"}}, {"type": "Feature", "geometry": {"type": "Point", "coordinates": [-0.0919828, 51.5150469]}, "properties": {"osm_id": 13022543572, "category": "tactile_paving", "barrier": "kerb", "kerb": "flush", "tactile_paving": "no"}}, {"type": "Feature", "geometry": {"type": "Point", "coordinates": [-0.0956014, 51.516742]}, "properties": {"osm_id": 13167687366, "category": "crossing", "crossing": "unmarked", "crossing:markings": "no", "crossing:signals": "no", "highway": "crossing"}}, {"type": "Feature", "geometry": {"type": "Point", "coordinates": [-0.0956186, 51.5167075]}, "properties": {"osm_id": 13167687367, "category": "tactile_paving", "barrier": "kerb", "kerb": "flush", "tactile_paving": "yes"}}, {"type": "Feature", "geometry": {"type": "Point", "coordinates": [-0.0955908, 51.5167629]}, "properties": {"osm_id": 13167687368, "category": "kerb", "barrier": "kerb", "kerb": "yes"}}, {"type": "Feature", "geometry": {"type": "Point", "coordinates": [-0.0972152, 51.5215787]}, "properties": {"osm_id": 13168137797, "category": "crossing", "crossing": "unmarked", "crossing:markings": "no", "highway": "crossing"}}, {"type": "Feature", "geometry": {"type": "Point", "coordinates": [-0.0974849, 51.5214296]}, "properties": {"osm_id": 13168197403, "category": "crossing", "crossing": "unmarked", "crossing:island": "no", "crossing:markings": "no", "highway": "crossing", "tactile_paving": "yes"}}, {"type": "Feature", "geometry": {"type": "Point", "coordinates": [-0.0976359, 51.5206912]}, "properties": {"osm_id": 13168197407, "category": "crossing", "crossing": "unmarked", "crossing:island": "no", "crossing:markings": "no", "highway": "crossing", "tactile_paving": "yes"}}, {"type": "Feature", "geometry": {"type": "Point", "coordinates": [-0.0976304, 51.5206662]}, "properties": {"osm_id": 13168197408, "category": "tactile_paving", "barrier": "kerb", "kerb": "lowered", "tactile_paving": "yes"}}, {"type": "Feature", "geometry": {"type": "Point", "coordinates": [-0.0969084, 51.5185761]}, "properties": {"osm_id": 13168197412, "category": "crossing", "highway": "crossing"}}, {"type": "Feature", "geometry": {"type": "Point", "coordinates": [-0.0970741, 51.5193883]}, "properties": {"osm_id": 13168197416, "category": "crossing", "highway": "crossing"}}, {"type": "Feature", "geometry": {"type": "Point", "coordinates": [-0.0971407, 51.5184682]}, "properties": {"osm_id": 13168197424, "category": "crossing", "highway": "crossing"}}, {"type": "Feature", "geometry": {"type": "Point", "coordinates": [-0.0980897, 51.5198309]}, "properties": {"osm_id": 13168197428, "category": "crossing", "crossing": "unmarked", "crossing:island": "no", "crossing:markings": "no", "highway": "crossing", "tactile_paving": "no"}}, {"type": "Feature", "geometry": {"type": "Point", "coordinates": [-0.0974878, 51.5214179]}, "properties": {"osm_id": 13168875948, "category": "tactile_paving", "barrier": "kerb", "kerb": "lowered", "tactile_paving": "yes"}}, {"type": "Feature", "geometry": {"type": "Point", "coordinates": [-0.0974802, 51.5214509]}, "properties": {"osm_id": 13168875949, "category": "tactile_paving", "barrier": "kerb", "kerb": "lowered", "tactile_paving": "yes"}}, {"type": "Feature", "geometry": {"type": "Point", "coordinates": [-0.0976375, 51.5207253]}, "properties": {"osm_id": 13168886044, "category": "tactile_paving", "barrier": "kerb", "kerb": "lowered", "tactile_paving": "yes"}}, {"type": "Feature", "geometry": {"type": "Point", "coordinates": [-0.0984416, 51.5205282]}, "properties": {"osm_id": 13168910517, "category": "crossing", "highway": "crossing"}}, {"type": "Feature", "geometry": {"type": "Point", "coordinates": [-0.0986843, 51.5205764]}, "properties": {"osm_id": 13168910527, "category": "crossing", "crossing": "unmarked", "crossing:markings": "no", "highway": "crossing"}}, {"type": "Feature", "geometry": {"type": "Point", "coordinates": [-0.0997242, 51.5203058]}, "properties": {"osm_id": 13168910535, "category": "crossing", "crossing": "unmarked", "crossing:markings": "no", "highway": "crossing"}}, {"type": "Feature", "geometry": {"type": "Point", "coordinates": [-0.0981346, 51.5198201]}, "properties": {"osm_id": 13168910545, "category": "tactile_paving", "barrier": "kerb", "kerb": "flush", "tactile_paving": "no"}}, {"type": "Feature", "geometry": {"type": "Point", "coordinates": [-0.0980463, 51.5198413]}, "properties": {"osm_id": 13168910546, "category": "tactile_paving", "barrier": "kerb", "kerb": "flush", "tactile_paving": "no"}}, {"type": "Feature", "geometry": {"type": "Point", "coordinates": [-0.0992408, 51.5196108]}, "properties": {"osm_id": 13168910550, "category": "tactile_paving", "barrier": "kerb", "kerb": "flush", "tactile_paving": "yes"}}, {"type": "Feature", "geometry": {"type": "Point", "coordinates": [-0.0991955, 51.5196248]}, "properties": {"osm_id": 13168910551, "category": "tactile_paving", "barrier": "kerb", "kerb": "flush", "tactile_paving": "yes"}}, {"type": "Feature", "geometry": {"type": "Point", "coordinates": [-0.0967896, 51.516929]}, "properties": {"osm_id": 13169092128, "category": "crossing", "highway": "crossing"}}, {"type": "Feature", "geometry": {"type": "Point", "coordinates": [-0.0967931, 51.5168846]}, "properties": {"osm_id": 13169092129, "category": "crossing", "highway": "crossing"}}, {"type": "Feature", "geometry": {"type": "Point", "coordinates": [-0.0962951, 51.5174892]}, "properties": {"osm_id": 13169092137, "category": "tactile_paving", "barrier": "kerb", "kerb": "lowered", "tactile_paving": "yes"}}, {"type": "Feature", "geometry": {"type": "Point", "coordinates": [-0.0962174, 51.5176042]}, "properties": {"osm_id": 13169092160, "category": "crossing", "highway": "crossing"}}, {"type": "Feature", "geometry": {"type": "Point", "coordinates": [-0.0968514, 51.5163106]}, "properties": {"osm_id": 13169105257, "category": "crossing", "crossing": "unmarked", "crossing:markings": "no", "highway": "crossing"}}, {"type": "Feature", "geometry": {"type": "Point", "coordinates": [-0.09607, 51.5161554]}, "properties": {"osm_id": 13169105259, "category": "kerb", "barrier": "kerb", "kerb": "lowered"}}, {"type": "Feature", "geometry": {"type": "Point", "coordinates": [-0.0940075, 51.5164729]}, "properties": {"osm_id": 13172783939, "category": "crossing", "crossing": "unmarked", "crossing:markings": "no", "highway": "crossing"}}, {"type": "Feature", "geometry": {"type": "Point", "coordinates": [-0.095525, 51.5154414]}, "properties": {"osm_id": 13231625163, "category": "crossing", "crossing": "unmarked", "crossing:markings": "no", "highway": "crossing"}}, {"type": "Feature", "geometry": {"type": "Point", "coordinates": [-0.0970074, 51.5163885]}, "properties": {"osm_id": 13231665823, "category": "kerb", "barrier": "kerb", "kerb": "lowered"}}, {"type": "Feature", "geometry": {"type": "Point", "coordinates": [-0.09688, 51.5163743]}, "properties": {"osm_id": 13231665824, "category": "kerb", "barrier": "kerb", "kerb": "lowered"}}, {"type": "Feature", "geometry": {"type": "Point", "coordinates": [-0.096945, 51.5163815]}, "properties": {"osm_id": 13231665825, "category": "crossing", "crossing": "unmarked", "crossing:markings": "no", "highway": "crossing"}}, {"type": "Feature", "geometry": {"type": "Point", "coordinates": [-0.0900028, 51.5208371]}, "properties": {"osm_id": 13246555469, "category": "tactile_paving", "barrier": "kerb", "kerb": "lowered", "tactile_paving": "yes"}}, {"type": "Feature", "geometry": {"type": "Point", "coordinates": [-0.0924102, 51.5210932]}, "properties": {"osm_id": 13246582043, "category": "tactile_paving", "barrier": "kerb", "kerb": "flush", "tactile_paving": "yes"}}, {"type": "Feature", "geometry": {"type": "Point", "coordinates": [-0.0910804, 51.5209507]}, "properties": {"osm_id": 13246701699, "category": "crossing", "crossing": "unmarked", "crossing:markings": "no", "highway": "crossing", "kerb": "lowered", "tactile_paving": "no"}}, {"type": "Feature", "geometry": {"type": "Point", "coordinates": [-0.0954831, 51.5216762]}, "properties": {"osm_id": 13246750630, "category": "crossing", "crossing": "unmarked", "crossing:markings": "no", "highway": "crossing"}}, {"type": "Feature", "geometry": {"type": "Point", "coordinates": [-0.0945242, 51.5219384]}, "properties": {"osm_id": 13246750631, "category": "tactile_paving", "barrier": "kerb", "kerb": "flush", "tactile_paving": "yes"}}, {"type": "Feature", "geometry": {"type": "Point", "coordinates": [-0.0955465, 51.5216941]}, "properties": {"osm_id": 13246750639, "category": "crossing", "highway": "crossing"}}, {"type": "Feature", "geometry": {"type": "Point", "coordinates": [-0.096163, 51.5216629]}, "properties": {"osm_id": 13246750642, "category": "crossing", "crossing": "unmarked", "crossing:markings": "no", "highway": "crossing"}}, {"type": "Feature", "geometry": {"type": "Point", "coordinates": [-0.0901424, 51.5195936]}, "properties": {"osm_id": 13328035754, "category": "crossing", "crossing": "unmarked", "crossing:island": "no", "crossing:markings": "no", "highway": "crossing"}}, {"type": "Feature", "geometry": {"type": "Point", "coordinates": [-0.0902941, 51.5195312]}, "properties": {"osm_id": 13328035755, "category": "crossing", "crossing": "unmarked", "crossing:island": "no", "crossing:markings": "no", "highway": "crossing"}}, {"type": "Feature", "geometry": {"type": "Point", "coordinates": [-0.0975246, 51.5200551]}, "properties": {"osm_id": 13396298857, "category": "tactile_paving", "barrier": "kerb", "kerb": "flush", "tactile_paving": "yes"}}, {"type": "Feature", "geometry": {"type": "Point", "coordinates": [-0.097676, 51.5151198]}, "properties": {"osm_id": 13817503087, "category": "tactile_paving", "barrier": "kerb", "kerb": "lowered", "tactile_paving": "yes"}}, {"type": "Feature", "geometry": {"type": "Point", "coordinates": [-0.0977068, 51.5151664]}, "properties": {"osm_id": 13817503089, "category": "tactile_paving", "barrier": "kerb", "kerb": "lowered", "tactile_paving": "yes"}}, {"type": "Feature", "geometry": {"type": "Point", "coordinates": [-0.0976909, 51.5151332]}, "properties": {"osm_id": 13817503090, "category": "crossing", "crossing": "unmarked", "crossing:markings": "no", "highway": "crossing"}}, {"type": "Feature", "geometry": {"type": "Point", "coordinates": [-0.098647, 51.5167189]}, "properties": {"osm_id": 13822981664, "category": "crossing", "highway": "crossing"}}, {"type": "Feature", "geometry": {"type": "Point", "coordinates": [-0.099125, 51.5177052]}, "properties": {"osm_id": 13822981683, "category": "crossing", "highway": "crossing"}}, {"type": "Feature", "geometry": {"type": "Point", "coordinates": [-0.0986449, 51.5166597]}, "properties": {"osm_id": 13822984899, "category": "crossing", "highway": "crossing"}}, {"type": "Feature", "geometry": {"type": "Point", "coordinates": [-0.0987166, 51.51605]}, "properties": {"osm_id": 13822984900, "category": "kerb", "barrier": "kerb", "kerb": "lowered"}}, {"type": "Feature", "geometry": {"type": "Point", "coordinates": [-0.098727, 51.5160051]}, "properties": {"osm_id": 13822984901, "category": "kerb", "barrier": "kerb", "kerb": "lowered"}}, {"type": "Feature", "geometry": {"type": "Point", "coordinates": [-0.0987226, 51.5160241]}, "properties": {"osm_id": 13822984902, "category": "crossing", "crossing": "unmarked", "crossing:markings": "no", "highway": "crossing"}}, {"type": "Feature", "geometry": {"type": "Point", "coordinates": [-0.0986037, 51.5173655]}, "properties": {"osm_id": 13822984905, "category": "kerb", "barrier": "kerb", "kerb": "lowered"}}, {"type": "Feature", "geometry": {"type": "Point", "coordinates": [-0.0985616, 51.5173862]}, "properties": {"osm_id": 13822984906, "category": "kerb", "barrier": "kerb", "kerb": "lowered"}}, {"type": "Feature", "geometry": {"type": "Point", "coordinates": [-0.098569, 51.5173833]}, "properties": {"osm_id": 13822984909, "category": "crossing", "crossing": "unmarked", "crossing:markings": "no", "highway": "crossing"}}, {"type": "Feature", "geometry": {"type": "Point", "coordinates": [-0.0984145, 51.5160776]}, "properties": {"osm_id": 13822984913, "category": "kerb", "barrier": "kerb", "kerb": "lowered"}}, {"type": "Feature", "geometry": {"type": "Point", "coordinates": [-0.0986284, 51.5161569]}, "properties": {"osm_id": 13822984914, "category": "kerb", "barrier": "kerb", "kerb": "lowered"}}, {"type": "Feature", "geometry": {"type": "Point", "coordinates": [-0.0984281, 51.5160848]}, "properties": {"osm_id": 13822984916, "category": "crossing", "crossing": "traffic_signals", "highway": "crossing"}}, {"type": "Feature", "geometry": {"type": "Point", "coordinates": [-0.098169, 51.5174289]}, "properties": {"osm_id": 13826883179, "category": "crossing", "highway": "crossing"}}, {"type": "Feature", "geometry": {"type": "Point", "coordinates": [-0.097953, 51.5169963]}, "properties": {"osm_id": 13826883197, "category": "crossing", "highway": "crossing"}}, {"type": "Feature", "geometry": {"type": "Point", "coordinates": [-0.095311, 51.5167188]}, "properties": {"osm_id": 13826911913, "category": "crossing", "highway": "crossing"}}, {"type": "Feature", "geometry": {"type": "Point", "coordinates": [-0.0984879, 51.5170022]}, "properties": {"osm_id": 13826911933, "category": "kerb", "barrier": "kerb", "kerb": "lowered"}}, {"type": "Feature", "geometry": {"type": "Point", "coordinates": [-0.0984987, 51.5169333]}, "properties": {"osm_id": 13826911934, "category": "kerb", "barrier": "kerb", "kerb": "lowered"}}, {"type": "Feature", "geometry": {"type": "Point", "coordinates": [-0.0953804, 51.5160001]}, "properties": {"osm_id": 13826911938, "category": "kerb", "barrier": "kerb", "kerb": "lowered"}}, {"type": "Feature", "geometry": {"type": "Point", "coordinates": [-0.0953086, 51.5159861]}, "properties": {"osm_id": 13826911939, "category": "kerb", "barrier": "kerb", "kerb": "lowered"}}, {"type": "Feature", "geometry": {"type": "Point", "coordinates": [-0.0946576, 51.5158137]}, "properties": {"osm_id": 13826911941, "category": "kerb", "barrier": "kerb", "kerb": "lowered"}}, {"type": "Feature", "geometry": {"type": "Point", "coordinates": [-0.0931041, 51.5162376]}, "properties": {"osm_id": 13830089631, "category": "crossing", "crossing": "unmarked", "crossing:markings": "no", "highway": "crossing"}}, {"type": "Feature", "geometry": {"type": "Point", "coordinates": [-0.0931954, 51.5162593]}, "properties": {"osm_id": 13830089632, "category": "kerb", "barrier": "kerb", "kerb": "lowered"}}, {"type": "Feature", "geometry": {"type": "Point", "coordinates": [-0.0924449, 51.5170646]}, "properties": {"osm_id": 13830089635, "category": "crossing", "highway": "crossing"}}, {"type": "Feature", "geometry": {"type": "Point", "coordinates": [-0.0980515, 51.5187043]}, "properties": {"osm_id": 13830160865, "category": "crossing", "highway": "crossing"}}, {"type": "Feature", "geometry": {"type": "Point", "coordinates": [-0.0981834, 51.5188708]}, "properties": {"osm_id": 13830160869, "category": "crossing", "highway": "crossing"}}, {"type": "Feature", "geometry": {"type": "Point", "coordinates": [-0.0984404, 51.5190127]}, "properties": {"osm_id": 13830160871, "category": "crossing", "highway": "crossing"}}, {"type": "Feature", "geometry": {"type": "Point", "coordinates": [-0.0985604, 51.5190604]}, "properties": {"osm_id": 13830160875, "category": "crossing", "highway": "crossing"}}, {"type": "Feature", "geometry": {"type": "Point", "coordinates": [-0.0978817, 51.519499]}, "properties": {"osm_id": 13830217555, "category": "crossing", "crossing": "unmarked", "crossing:markings": "no", "highway": "crossing"}}, {"type": "Feature", "geometry": {"type": "Point", "coordinates": [-0.0980189, 51.5196779]}, "properties": {"osm_id": 13830217558, "category": "crossing", "crossing": "unmarked", "crossing:markings": "no", "highway": "crossing"}}, {"type": "Feature", "geometry": {"type": "Point", "coordinates": [-0.0989207, 51.5193357]}, "properties": {"osm_id": 13830217561, "category": "crossing", "crossing": "unmarked", "crossing:markings": "no", "highway": "crossing"}}, {"type": "Feature", "geometry": {"type": "Point", "coordinates": [-0.0925134, 51.5200532]}, "properties": {"osm_id": 13832220938, "category": "crossing", "highway": "crossing"}}, {"type": "Feature", "geometry": {"type": "Point", "coordinates": [-0.09176, 51.5198535]}, "properties": {"osm_id": 13832220945, "category": "crossing", "highway": "crossing"}}, {"type": "Feature", "geometry": {"type": "Point", "coordinates": [-0.0988942, 51.5212007]}, "properties": {"osm_id": 13832726732, "category": "crossing", "highway": "crossing"}}, {"type": "Feature", "geometry": {"type": "Point", "coordinates": [-0.0907584, 51.5201754]}, "properties": {"osm_id": 13832775466, "category": "crossing", "crossing": "unmarked", "crossing:markings": "no", "highway": "crossing"}}, {"type": "Feature", "geometry": {"type": "Point", "coordinates": [-0.0900473, 51.52002]}, "properties": {"osm_id": 13832775470, "category": "crossing", "crossing": "unmarked", "crossing:markings": "no", "highway": "crossing"}}, {"type": "Feature", "geometry": {"type": "Point", "coordinates": [-0.0910536, 51.5198145]}, "properties": {"osm_id": 13832775475, "category": "crossing", "crossing": "unmarked", "crossing:markings": "no", "highway": "crossing"}}, {"type": "Feature", "geometry": {"type": "Point", "coordinates": [-0.0943701, 51.5214642]}, "properties": {"osm_id": 13833502301, "category": "crossing", "crossing": "unmarked", "crossing:markings": "no", "highway": "crossing"}}, {"type": "Feature", "geometry": {"type": "Point", "coordinates": [-0.095291, 51.5213988]}, "properties": {"osm_id": 13833502315, "category": "crossing", "crossing": "unmarked", "crossing:markings": "no", "highway": "crossing"}}, {"type": "Feature", "geometry": {"type": "Point", "coordinates": [-0.0968107, 51.5215681]}, "properties": {"osm_id": 13833502321, "category": "crossing", "highway": "crossing"}}, {"type": "Feature", "geometry": {"type": "Point", "coordinates": [-0.0953779, 51.5210002]}, "properties": {"osm_id": 13833502339, "category": "crossing", "crossing": "unmarked", "crossing:markings": "no", "highway": "crossing"}}, {"type": "Feature", "geometry": {"type": "Point", "coordinates": [-0.0909151, 51.5218292]}, "properties": {"osm_id": 13838075442, "category": "crossing", "crossing": "unmarked", "crossing:markings": "no", "highway": "crossing"}}, {"type": "Feature", "geometry": {"type": "Point", "coordinates": [-0.0924874, 51.5216814]}, "properties": {"osm_id": 13838075464, "category": "crossing", "crossing": "unmarked", "crossing:markings": "no", "highway": "crossing"}}, {"type": "Feature", "geometry": {"type": "Point", "coordinates": [-0.0989513, 51.521206]}, "properties": {"osm_id": 13901510896, "category": "crossing", "crossing": "unmarked", "crossing:markings": "no", "highway": "crossing"}}, {"type": "Feature", "geometry": {"type": "Point", "coordinates": [-0.0995209, 51.5200086]}, "properties": {"osm_id": 13901872724, "category": "crossing", "crossing": "unmarked", "crossing:markings": "no", "highway": "crossing"}}, {"type": "Feature", "geometry": {"type": "Point", "coordinates": [-0.0994567, 51.5199141]}, "properties": {"osm_id": 13901872725, "category": "crossing", "crossing": "unmarked", "crossing:markings": "no", "highway": "crossing"}}, {"type": "Feature", "geometry": {"type": "Point", "coordinates": [-0.0994434, 51.5199615]}, "properties": {"osm_id": 13901872726, "category": "crossing", "crossing": "unmarked", "crossing:markings": "no", "highway": "crossing"}}, {"type": "Feature", "geometry": {"type": "Point", "coordinates": [-0.0969651, 51.520119]}, "properties": {"osm_id": 13903924411, "category": "crossing", "crossing": "unmarked", "crossing:markings": "no", "highway": "crossing"}}, {"type": "Feature", "geometry": {"type": "Point", "coordinates": [-0.0963429, 51.5202387]}, "properties": {"osm_id": 13903924413, "category": "crossing", "crossing": "unmarked", "crossing:markings": "no", "highway": "crossing"}}, {"type": "Feature", "geometry": {"type": "Point", "coordinates": [-0.0955707, 51.5203844]}, "properties": {"osm_id": 13903924414, "category": "crossing", "crossing": "unmarked", "crossing:markings": "no", "highway": "crossing"}}, {"type": "Feature", "geometry": {"type": "Point", "coordinates": [-0.0958344, 51.5204255]}, "properties": {"osm_id": 13903924415, "category": "crossing", "crossing": "unmarked", "crossing:markings": "no", "highway": "crossing"}}, {"type": "Feature", "geometry": {"type": "Point", "coordinates": [-0.0937117, 51.5207252]}, "properties": {"osm_id": 13903924416, "category": "crossing", "crossing": "unmarked", "crossing:markings": "no", "highway": "crossing"}}, {"type": "Feature", "geometry": {"type": "Point", "coordinates": [-0.0938824, 51.5206934]}, "properties": {"osm_id": 13903924417, "category": "crossing", "crossing": "unmarked", "crossing:markings": "no", "highway": "crossing"}}, {"type": "Feature", "geometry": {"type": "Point", "coordinates": [-0.0941405, 51.5206452]}, "properties": {"osm_id": 13903924418, "category": "crossing", "crossing": "unmarked", "crossing:markings": "no", "highway": "crossing"}}, {"type": "Feature", "geometry": {"type": "Point", "coordinates": [-0.0939285, 51.5207702]}, "properties": {"osm_id": 13903924419, "category": "crossing", "crossing": "unmarked", "crossing:markings": "no", "highway": "crossing"}}, {"type": "Feature", "geometry": {"type": "Point", "coordinates": [-0.0941707, 51.5211397]}, "properties": {"osm_id": 13903924428, "category": "crossing", "crossing": "unmarked", "crossing:markings": "no", "highway": "crossing"}}, {"type": "Feature", "geometry": {"type": "Point", "coordinates": [-0.0974905, 51.5177005]}, "properties": {"osm_id": 13903958928, "category": "crossing", "crossing": "uncontrolled", "crossing:markings": "zebra", "highway": "crossing"}}, {"type": "Feature", "geometry": {"type": "Point", "coordinates": [-0.0996739, 51.5191]}, "properties": {"osm_id": 13903958951, "category": "crossing", "crossing": "unmarked", "crossing:markings": "no", "highway": "crossing"}}, {"type": "Feature", "geometry": {"type": "Point", "coordinates": [-0.0995426, 51.5191505]}, "properties": {"osm_id": 13903958952, "category": "crossing", "crossing": "unmarked", "crossing:markings": "no", "highway": "crossing"}}, {"type": "Feature", "geometry": {"type": "Point", "coordinates": [-0.0995753, 51.5191367]}, "properties": {"osm_id": 13903958953, "category": "crossing", "crossing": "unmarked", "crossing:markings": "no", "highway": "crossing"}}, {"type": "Feature", "geometry": {"type": "Point", "coordinates": [-0.0992377, 51.5192754]}, "properties": {"osm_id": 13903958954, "category": "crossing", "crossing": "unmarked", "crossing:markings": "no", "highway": "crossing"}}, {"type": "Feature", "geometry": {"type": "Point", "coordinates": [-0.0992631, 51.519265]}, "properties": {"osm_id": 13903958955, "category": "crossing", "crossing": "unmarked", "crossing:markings": "no", "highway": "crossing"}}, {"type": "Feature", "geometry": {"type": "Point", "coordinates": [-0.0990747, 51.519341]}, "properties": {"osm_id": 13903958956, "category": "crossing", "crossing": "unmarked", "crossing:markings": "no", "highway": "crossing"}}, {"type": "Feature", "geometry": {"type": "Point", "coordinates": [-0.0991078, 51.5193276]}, "properties": {"osm_id": 13903958957, "category": "crossing", "crossing": "unmarked", "crossing:markings": "no", "highway": "crossing"}}, {"type": "Feature", "geometry": {"type": "Point", "coordinates": [-0.0923379, 51.5184137]}, "properties": {"osm_id": 13906658501, "category": "crossing", "highway": "crossing"}}, {"type": "Feature", "geometry": {"type": "Point", "coordinates": [-0.0930421, 51.5185708]}, "properties": {"osm_id": 13906658508, "category": "crossing", "highway": "crossing"}}, {"type": "Feature", "geometry": {"type": "Point", "coordinates": [-0.0929784, 51.5180487]}, "properties": {"osm_id": 13906658514, "category": "crossing", "highway": "crossing"}}, {"type": "Feature", "geometry": {"type": "Point", "coordinates": [-0.0954552, 51.5173024]}, "properties": {"osm_id": 13909721379, "category": "crossing", "crossing": "unmarked", "crossing:markings": "no", "highway": "crossing"}}, {"type": "Feature", "geometry": {"type": "Point", "coordinates": [-0.0951671, 51.5210606]}, "properties": {"osm_id": 13911580206, "category": "crossing", "crossing": "unmarked", "crossing:markings": "no", "highway": "crossing"}}]}